240P/NEAT,e,23.5354,74.9134,351.9787,3.863015,0.1298119,0.45016105,254.3462,09/28.0/2023,2000,g 11.0,4.0
# From MPEC 2022-J42
241P/LINEAR,e,21.0980,305.4885,111.4706,4.923418,0.0902202,0.61047099,71.6260,09/28.0/2023,2000,g 13.5,4.0
# From MPEC 2023-RF3
242P/Spahr,e,32.4882,180.3789,244.9905,5.519627,0.0760045,0.28059581,325.5355,09/28.0/2023,2000,g  8.0,4.0
# From MPEC 2022-K19
243P/NEAT,e,7.6426,87.6541,283.6284,3.829062,0.1315423,0.36065650,244.1021,09/28.0/2023,2000,g 12.5,4.0
# From MPEC 2023-J29
244P/Scotti,e,2.2591,354.0017,93.1959,4.898606,0.0909066,0.19962463,28.5471,09/28.0/2023,2000,g  9.0,4.0
# From MPEC 2022-CN4
245P/WISE,e,21.1815,316.8885,316.5976,4.048877,0.1209768,0.45580477,249.2536,09/28.0/2023,2000,g 14.0,4.0
# From MPEC 2023-R20
246P/NEAT,e,16.3147,76.6374,179.6516,4.051685,0.1208511,0.29028941,113.6068,09/28.0/2023,2000,g 10.5,4.0
# From MPEC 2021-F20
247P/LINEAR,e,13.6594,54.0132,47.4235,3.966509,0.1247646,0.62506443,219.7351,09/28.0/2023,2000,g 16.5,2.0
# From MPC 75730
248P/Gibbs,e,6.3513,207.8243,209.8913,5.987791,0.0672673,0.63931784,311.7124,09/28.0/2023,2000,g 14.0,4.0
# From MPEC 2022-YN2
249P/LINEAR,e,8.3855,239.0523,65.7564,2.764036,0.2144808,0.81948214,254.3316,09/28.0/2023,2000,g 15.5,4.0
# From MPC110497
250P/Larson,e,13.1546,73.3054,46.0252,3.771904,0.1345436,0.39870917,279.6036,09/28.0/2023,2000,g 14.5,4.0
# From MPC104795
251P/LINEAR,e,23.3873,219.3230,31.2498,3.513798,0.1496370,0.50446077,339.3128,09/28.0/2023,2000,g 16.5,2.0
# From MPEC 2021-S45
252P/LINEAR,e,10.4145,190.9107,343.3963,3.051268,0.1849199,0.67085682,149.6704,09/28.0/2023,2000,g 17.5,4.0
# From MPEC 2020-FB5
253P/PANSTARRS,e,4.9450,146.9133,230.7282,3.463148,0.1529317,0.41462731,300.5258,09/28.0/2023,2000,g 14.5,4.0
# From MPEC 2023-FK0
254P/McNaught,e,32.5573,129.1879,219.7151,4.617351,0.0993378,0.31938428,108.5452,09/28.0/2023,2000,g 11.0,4.0
# From NK 2214
255P/Levy,e,13.3968,275.6431,186.0290,2.942420,0.1952752,0.71172854,75.2585,09/28.0/2023,2000,g  9.0,4.0
# From MPEC 2023_O39
256P/LINEAR,e,27.6217,81.3272,124.1746,4.638752,0.0986512,0.41790683,19.7146,09/28.0/2023,2000,g 14.0,2.0
# From MPEC 2023-A50
257P/Catalina,e,20.2199,207.7117,117.7873,3.765381,0.1348934,0.42961718,150.0979,09/28.0/2023,2000,g 11.5,4.0
# From MPEC 2021-U31
258P/PANSTARRS,e,6.7483,126.2327,25.6591,4.392341,0.1070681,0.20867137,128.2626,09/28.0/2023,2000,g 13.0,4.0
# From MPC106349
259P/Garradd,e,15.8984,51.3709,257.5693,2.728903,0.2186361,0.33885452,130.5104,09/28.0/2023,2000,g 15.5,4.0
# From MPEC 2022-O01
260P/McNaught,e,15.0548,349.3480,18.4523,3.623346,0.1429023,0.60927042,211.1777,09/28.0/2023,2000,g 13.5,4.0
# From MPEC 2021-J28
261P/Larson,e,6.0718,291.0823,67.3192,3.490395,0.1511445,0.42322196,235.9044,09/28.0/2023,2000,g 14.0,4.0
# From MPC 82322
262P/McNaught-Russell,e,29.2795,217.8886,171.0497,6.870352,0.0547313,0.81642122,215.9263,09/28.0/2023,2000,g 13.5,4.0
# From MPEC 2023_O39
263P/Gibbs,e,11.5223,105.5037,35.0422,3.041630,0.1857995,0.59359186,44.6690,09/28.0/2023,2000,g 18.0,4.0
# From MPC114608
264P/Larsen,e,25.9369,219.6681,345.3111,3.895598,0.1281867,0.37313676,198.7938,09/28.0/2023,2000,g 13.0,4.0
# From MPC 79870
265P/LINEAR,e,14.3608,342.9552,33.4883,4.257974,0.1121759,0.64751206,107.7716,09/28.0/2023,2000,g 14.5,4.0
# From MPEC 2021-F20
266P/Christensen,e,3.4270,4.9792,97.6742,3.530338,0.1485866,0.34032683,186.6602,09/28.0/2023,2000,g 14.7,4.0
# From MPC114608
267P/LONEOS,e,6.1430,228.6031,114.2209,3.209681,0.1714002,0.61429358,324.0406,09/28.0/2023,2000,g 19.5,4.0
# From MPC 92277
268P/Bernardi,e,15.6291,124.9627,359.8680,4.635477,0.0987558,0.47363589,315.8825,09/28.0/2023,2000,g 14.0,4.0
# From MPEC 2023-J29
269P/Jedicke,e,7.0836,241.7653,225.6604,7.064908,0.0524861,0.43231102,172.3033,09/28.0/2023,2000,g 10.0,4.0
# From MPC 88332
270P/Gehrels,e,2.9249,223.0326,209.8010,6.655330,0.0574050,0.46964335,215.6794,09/28.0/2023,2000,g  8.0,4.0
# From MPC 92277
271P/van Houten-Lemmon,e,6.8723,9.3407,36.4474,7.033865,0.0528339,0.39609273,196.5289,09/28.0/2023,2000,g 11.0,4.0
# From MPEC 2023-D41
272P/NEAT,e,18.0740,109.4534,27.8852,4.461698,0.1045812,0.45499870,45.8049,09/28.0/2023,2000,g 16.0,2.0
# From MPC 82723
273P/Pons-Gambart,e,36.6704,320.4141,20.3309,32.02880,0.0054374,0.97413024,0.0000,12/20.5181/2012,2000,g 11.5,4.0
# From MPEC 2023-M14
274P/Tombaugh-Tenagra,e,15.8176,81.3216,38.4686,4.377582,0.1076100,0.43977065,57.8396,09/28.0/2023,2000,g 13.9,4.0
# From MPC 81862
275P/Hermann,e,21.2637,348.7006,173.9482,5.785171,0.0708320,0.71315979,280.1737,09/28.0/2023,2000,g 17.0,4.0
# From MPEC 2023-R20
276P/Vorobjov,e,14.8125,211.3399,199.4041,5.330621,0.0800825,0.26867291,324.6874,09/28.0/2023,2000,g 11.5,4.0
# From MPEC 2021-F20
277P/LINEAR,e,16.7836,276.2831,152.3626,3.853437,0.1302962,0.50636409,130.4656,09/28.0/2023,2000,g 15.1,4.0
# From MPEC 2021-S45
278P/McNaught,e,6.6897,15.3322,237.4792,3.676653,0.1398058,0.43837370,155.3227,09/28.0/2023,2000,g 14.0,4.0
# From MPEC 2022-K19
279P/LaSagra,e,5.0498,346.2108,5.8390,3.576246,0.1457347,0.39941564,23.5382,09/28.0/2023,2000,g 14.0,4.0
# From MPEC 2023-J95
280P/Larsen,e,11.7722,131.3793,104.7361,4.528979,0.1022595,0.41705256,5.5523,09/28.0/2023,2000,g 12.5,4.0
# From MPEC 2023-D41
281P/MOSS,e,4.7178,87.1740,26.6851,4.880243,0.0914202,0.17329332,21.7817,09/28.0/2023,2000,g 11.0,4.0
# From MPC133426
282P/,e,5.8118,217.6229,9.2684,4.237511,0.1129894,0.18782424,79.5196,09/28.0/2023,2000,g 13.5,2.0
# From MPEC 2022-K19
283P/Spacewatch,e,14.4569,161.1243,22.1932,4.134312,0.1172463,0.48435374,87.9667,09/28.0/2023,2000,g 16.0,2.0
# From MPEC 2023-D41
284P/McNaught,e,11.8596,144.2669,202.4599,3.676881,0.1397927,0.37513101,104.2168,09/28.0/2023,2000,g 13.0,4.0
# From MPEC 2023-B57
285P/LINEAR,e,25.0374,185.5030,178.3925,4.507274,0.1029990,0.61858750,26.6554,09/28.0/2023,2000,g 15.0,4.0
# From MPEC 2022-X67
286P/Christensen,e,17.0618,283.7407,24.8651,4.109839,0.1182951,0.42654089,59.5832,09/28.0/2023,2000,g 14.0,4.0
# From MPEC 2023-RF3
287P/Christensen,e,16.3204,139.0417,189.1765,4.164796,0.1159614,0.27146521,9.7042,09/28.0/2023,2000,g 13.5,4.0
# From MPC133426
288P/,e,3.2384,83.1084,280.2519,3.048494,0.1851723,0.20036838,106.5354,09/28.0/2023,2000,g 16.0,2.0
# From MPEC 2023-HD1
289P/Blanpain,e,5.9001,68.8915,9.8460,3.044934,0.1854971,0.68628418,255.3125,09/28.0/2023,2000,g 19.7,4.0
# From MPC 95214
290P/Jager,e,20.0536,302.6822,181.8188,6.216434,0.0635905,0.62765078,224.8527,09/28.0/2023,2000,g 10.5,4.0
# From MPEC 2023-J29
291P/NEAT,e,6.3097,237.6593,173.5082,4.535107,0.1020523,0.43436066,14.9970,09/28.0/2023,2000,g 13.0,4.0
# From MPEC 2022-K19
292P/Li,e,24.3064,90.9086,319.5791,6.099924,0.0654210,0.58991439,230.2974,09/28.0/2023,2000,g 12.5,4.0
# From MPEC 2022-L66
293P/Spacewatch,e,9.0607,78.3639,40.9550,3.639822,0.1419331,0.41877402,143.7310,09/28.0/2023,2000,g 14.5,4.0
# From MPEC 2020-SI8
294P/LINEAR,e,18.1642,311.8889,235.4319,3.190771,0.1729261,0.60188868,241.8595,09/28.0/2023,2000,g 15.5,4.0
# From MPEC 2022-K19
295P/LINEAR,e,21.0752,7.4227,72.9234,5.303688,0.0806932,0.61739159,276.9809,09/28.0/2023,2000,g 12.0,4.0
# From MPEC 2021-N06
296P/Garradd,e,25.2713,263.5308,349.9391,3.490078,0.1511651,0.47937693,167.1442,09/28.0/2023,2000,g 14.0,4.0
# From MPC102956
297P/Beshore,e,10.3348,96.5374,135.8036,3.483135,0.1516172,0.32001318,146.7908,09/28.0/2023,2000,g 15.0,4.0
# From MPC114609
298P/Christensen,e,7.8706,52.8144,100.5998,3.589699,0.1449162,0.38627347,161.9249,09/28.0/2023,2000,g 15.0,4.0
# From MPEC 2023-OA6
299P/Catalina-PANSTARRS,e,10.4672,271.5889,323.7207,4.389092,0.1071870,0.28090367,336.8961,09/28.0/2023,2000,g 11.5,4.0
# From MPEC 2023-J95
300P/Catalina,e,5.6746,95.6172,222.9513,2.698700,0.2223167,0.69172708,37.7682,09/28.0/2023,2000,g 16.0,4.0
# From MPC 89014
301P/LINEAR-NEAT,e,10.3358,351.0949,193.5464,5.743574,0.0716029,0.58565473,238.5692,09/28.0/2023,2000,g 13.0,4.0
# From MPEC 2023-N01
302P/Lemmon-PANSTARRS,e,6.0340,121.7211,208.5625,4.271514,0.1116430,0.23007602,301.0522,09/28.0/2023,2000,g 12.5,4.0
# From MPC 92278
303P/NEAT,e,7.0185,347.9907,356.9849,5.042413,0.0870455,0.51076133,283.7843,09/28.0/2023,2000,g 13.5,4.0
# From MPEC 2022-K19
304P/Ory,e,2.6065,58.9401,335.2484,3.150530,0.1762498,0.60102687,201.0470,09/28.0/2023,2000,g 16.5,4.0
# From MPC101100
305P/Skiff,e,11.6665,240.1463,147.3562,4.637928,0.0986775,0.69403501,318.9410,09/28.0/2023,2000,g 18.0,4.0
# From MPC 92278
306P/LINEAR,e,8.3071,341.3795,0.8878,3.124307,0.1784734,0.59294619,239.8063,09/28.0/2023,2000,g 19.0,4.0
# From MPC 92278
307P/LINEAR,e,4.4376,158.1858,222.1663,5.788567,0.0707697,0.67558240,226.2050,09/28.0/2023,2000,g 15.0,4.0
# From MPEC 2022-C56
308P/Lagerkvist-Carsenty,e,4.8531,63.0972,333.6604,6.599248,0.0581383,0.36476357,177.8839,09/28.0/2023,2000,g 13.0,2.0
# From MPEC 2023-RF3
309P/LINEAR,e,17.0237,10.1444,49.9326,4.375085,0.1077021,0.61838292,340.2865,09/28.0/2023,2000,g 15.0,4.0
# From MPEC 2023-RF3
310P/Hill,e,13.1233,8.9205,31.6178,4.188645,0.1149725,0.42303658,357.0452,09/28.0/2023,2000,g 13.5,4.0
# From MPEC 2021-BE3
311P/PANSTARRS,e,4.9696,279.1602,144.3507,2.189082,0.3043063,0.11599735,330.7531,09/28.0/2023,2000,g 17.0,4.0
# From MPEC 2021-BE3
312P/NEAT,e,19.7628,144.7073,207.6469,3.470454,0.1524490,0.42743751,167.3659,09/28.0/2023,2000,g 16.0,4.0
# From MPEC 2021-S45
313P/Gibbs,e,10.9801,106.0079,254.8434,3.164161,0.1751122,0.23485326,220.5629,09/28.0/2023,2000,g 15.0,4.0
# From MPC105243
314P/Montani,e,3.9888,267.6109,213.8704,7.254162,0.0504456,0.41736068,128.3983,09/28.0/2023,2000,g  9.5,4.0
# From MPEC 2023-J29
315P/LONEOS,e,17.7328,68.7279,65.7678,4.939583,0.0897777,0.52127762,224.3083,09/28.0/2023,2000,g 11.0,4.0
# From MPC 92279
316P/LONEOS-Christensen,e,9.8230,192.2404,244.0724,4.407562,0.1065139,0.15720792,317.8012,09/28.0/2023,2000,g 13.5,4.0
# From MPEC 2020-C98
317P/WISE,e,11.9598,275.4708,334.8201,2.961825,0.1933592,0.57091462,212.1701,09/28.0/2023,2000,g 17.5,4.0
# From MPC102103
